[
    {
        "CCSDS_OMM_VERS": "3.0",
        "COMMENT": "GENERATED VIA SPACE-TRACK.ORG API",
        "CREATION_DATE": "2025-04-09T14:16:31",
        "ORIGINATOR": "18 SPCS",
        "OBJECT_NAME": "COSMOS 2516 (GLONASS)",
        "OBJECT_ID": "2016-032A",
        "CENTER_NAME": "EARTH",
        "REF_FRAME": "TEME",
        "TIME_SYSTEM": "UTC",
        "MEAN_ELEMENT_THEORY": "SGP4",
        "EPOCH": "2025-04-09T07:38:36.286656",
        "MEAN_MOTION": "2.13106524",
        "ECCENTRICITY": "0.00163690",
        "INCLINATION": "63.8426",
        "RA_OF_ASC_NODE": "205.9605",
        "ARG_OF_PERICENTER": "210.8202",
        "MEAN_ANOMALY": "149.0814",
        "EPHEMERIS_TYPE": "0",
        "CLASSIFICATION_TYPE": "U",
        "NORAD_CAT_ID": "41554",
        "ELEMENT_SET_NO": "999",
        "REV_AT_EPOCH": "6898",
        "BSTAR": "0.00000000000000",
        "MEAN_MOTION_DOT": "-0.00000038",
        "MEAN_MOTION_DDOT": "0.0000000000000",
        "SEMIMAJOR_AXIS": "25507.663",
        "PERIOD": "675.718",
        "APOAPSIS": "19171.282",
        "PERIAPSIS": "19087.775",
        "OBJECT_TYPE": "PAYLOAD",
        "RCS_SIZE": "LARGE",
        "COUNTRY_CODE": "CIS",
        "LAUNCH_DATE": "2016-05-29",
        "SITE": "PKMTR",
        "DECAY_DATE": null,
        "FILE": "4695461",
        "GP_ID": "285177220",
        "TLE_LINE0": "0 COSMOS 2516 (GLONASS)",
        "TLE_LINE1": "1 41554U 16032A   25099.31847554 -.00000038  00000-0  00000+0 0  9994",
        "TLE_LINE2": "2 41554  63.8426 205.9605 0016369 210.8202 149.0814  2.13106524 68989"
    }
]